SEEDS II (CO-66)        
1 32791U 08021J   26068.92109284  .00023758  00000+0  84213-3 0  9995
2 32791  97.7519  62.3611 0001448 359.2618   0.8619 15.29097235972108
STARLINK-30833          
1 58152U 23166C   26068.67965591  .00000471  00000+0  28028-4 0  9994
2 58152  53.1607 219.9375 0001324  77.1905 282.9244 15.30188000133172
